H1 CPF  1  HTS 2022  4  8 12  5981 larets           NONE
H2  0304206 5557    27944 2022 04 08  0  0  0 2022 04 13  0  0  0   180 1 1  0 0 0
H5  0.0560 
H9 
10 0 59677  47880.00000  0   -6911009.698   -1312064.356     699480.747
10 0 59677  48060.00000  0   -6702270.317    -986140.939    2009186.067
10 0 59677  48240.00000  0   -6240976.522    -633164.822    3245311.733
10 0 59677  48420.00000  0   -5543315.863    -272372.636    4362530.021
10 0 59677  48600.00000  0   -4634640.482      77243.938    5319858.095
10 0 59677  48780.00000  0   -3548503.812     397864.498    6082171.009
10 0 59677  48960.00000  0   -2325379.959     673691.296    6621485.695
10 0 59677  49140.00000  0   -1011118.105     891684.068    6917973.962
10 0 59677  49320.00000  0     344801.345    1042150.501    6960674.394
10 0 59677  49500.00000  0    1691139.812    1119168.428    6747889.248
10 0 59677  49680.00000  0    2976843.994    1120825.083    6287263.628
10 0 59677  49860.00000  0    4152999.966    1049263.152    5595540.717
10 0 59677  50040.00000  0    5174730.986     910530.986    4697989.252
10 0 59677  50220.00000  0    6002967.239     714241.415    3627516.174
10 0 59677  50400.00000  0    6606017.855     473053.466    2423472.925
10 0 59677  50580.00000  0    6960856.896     201997.789    1130191.158
10 0 59677  50760.00000  0    7054062.076     -82321.728    -204692.827
10 0 59677  50940.00000  0    6882349.340    -362607.536   -1532058.911
10 0 59677  51120.00000  0    6452670.583    -621782.623   -2803182.072
10 0 59677  51300.00000  0    5781873.798    -843888.351   -3971575.382
10 0 59677  51480.00000  0    4895955.076   -1014917.396   -4994713.157
10 0 59677  51660.00000  0    3828954.399   -1123537.375   -5835561.510
10 0 59677  51840.00000  0    2621564.727   -1161676.435   -6463865.738
10 0 59677  52020.00000  0    1319525.094   -1124946.333   -6857160.644
10 0 59677  52200.00000  0     -28127.397   -1012888.134   -7001489.856
10 0 59677  52380.00000  0   -1370884.166    -829038.570   -6891832.911
10 0 59677  52560.00000  0   -2658614.457    -580814.743   -6532243.003
10 0 59677  52740.00000  0   -3843386.171    -279221.613   -5935696.445
10 0 59677  52920.00000  0   -4881209.057      61607.638   -5123664.871
10 0 59677  53100.00000  0   -5733659.138     425025.135   -4125408.772
10 0 59677  53280.00000  0   -6369327.559     792616.689   -2976998.047
10 0 59677  53460.00000  0   -6765035.425    1145060.285   -1720070.286
10 0 59677  53640.00000  0   -6906751.604    1463056.845    -400356.746
10 0 59677  53820.00000  0   -6790160.862    1728288.868     933980.475
10 0 59677  54000.00000  0   -6420836.851    1924357.286    2234129.454
10 0 59677  54180.00000  0   -5814012.406    2037650.794    3452451.272
10 0 59677  54360.00000  0   -4993948.488    2058096.999    4544267.183
10 0 59677  54540.00000  0   -3992933.739    1979754.666    5469523.964
10 0 59677  54720.00000  0   -2849974.993    1801220.647    6194270.246
10 0 59677  54900.00000  0   -1609239.465    1525833.428    6691898.495
10 0 59677  55080.00000  0    -318312.809    1161660.662    6944105.278
10 0 59677  55260.00000  0     973643.719     721272.159    6941544.160
10 0 59677  55440.00000  0    2217771.954     221307.352    6684168.268
10 0 59677  55620.00000  0    3367374.348    -318150.302    6181254.314
10 0 59677  55800.00000  0    4379692.079    -874374.879    5451101.959
10 0 59677  55980.00000  0    5217539.582   -1422948.959    4520404.682
10 0 59677  56160.00000  0    5850731.606   -1938828.064    3423304.084
10 0 59677  56340.00000  0    6257241.713   -2397473.936    2200145.485
10 0 59677  56520.00000  0    6424029.381   -2776003.815     895972.807
10 0 59677  56700.00000  0    6347491.601   -3054294.864    -441178.591
10 0 59677  56880.00000  0    6033509.819   -3215984.630   -1762119.807
10 0 59677  57060.00000  0    5497085.827   -3249310.528   -3018388.681
10 0 59677  57240.00000  0    4761593.928   -3147744.245   -4164076.749
10 0 59677  57420.00000  0    3857701.340   -2910394.761   -5157523.287
10 0 59677  57600.00000  0    2822018.720   -2542163.796   -5962807.375
10 0 59677  57780.00000  0    1695563.331   -2053654.439   -6550983.967
10 0 59677  57960.00000  0     522111.340   -1460847.745   -6901047.204
10 0 59677  58140.00000  0    -653500.910    -784559.817   -7000599.689
10 0 59677  58320.00000  0   -1787058.849     -49708.600   -6846225.095
10 0 59677  58500.00000  0   -2836588.121     715588.632   -6443573.343
10 0 59677  58680.00000  0   -3763864.678    1481062.065   -5807160.964
10 0 59677  58860.00000  0   -4535781.210    2215451.703   -4959895.981
10 0 59677  59040.00000  0   -5125535.282    2887755.451   -3932322.900
10 0 59677  59220.00000  0   -5513589.604    3468518.366   -2761590.800
10 0 59677  59400.00000  0   -5688365.841    3931110.512   -1490169.617
10 0 59677  59580.00000  0   -5646634.908    4252938.249    -164341.236
10 0 59677  59760.00000  0   -5393574.634    4416524.647    1167485.973
10 0 59677  59940.00000  0   -4942479.521    4410398.931    2456574.518
10 0 59677  60120.00000  0   -4314128.959    4229741.355    3655681.787
10 0 59677  60300.00000  0   -3535849.277    3876752.945    4720828.632
10 0 59677  60480.00000  0   -2640318.835    3360726.957    5612937.272
10 0 59677  60660.00000  0   -1664175.840    2697820.722    6299272.711
10 0 59677  60840.00000  0    -646495.475    1910539.167    6754633.855
10 0 59677  61020.00000  0     372789.358    1026954.628    6962256.621
10 0 59677  61200.00000  0    1354460.843      79696.354    6914417.034
10 0 59677  61380.00000  0    2261531.776    -895257.345    6612719.638
10 0 59677  61560.00000  0    3060651.703   -1859948.713    6068065.343
10 0 59677  61740.00000  0    3723359.344   -2775927.983    5300292.551
10 0 59677  61920.00000  0    4227134.648   -3605806.674    4337490.874
10 0 59677  62100.00000  0    4556207.027   -4314816.890    3215000.128
10 0 59677  62280.00000  0    4702083.607   -4872308.792    1974115.937
10 0 59677  62460.00000  0    4663767.213   -5253109.472     660542.251
10 0 59677  62640.00000  0    4447646.264   -5438670.633    -677345.765
10 0 59677  62820.00000  0    4067064.688   -5417943.299   -1990350.058
10 0 59677  63000.00000  0    3541594.067   -5187931.921   -3230326.502
10 0 59677  63180.00000  0    2896049.788   -4753899.128   -4351996.584
10 0 59677  63360.00000  0    2159310.073   -4129220.325   -5314612.727
10 0 59677  63540.00000  0    1363006.670   -3334904.553   -6083407.653
10 0 59677  63720.00000  0     540160.395   -2398822.560   -6630782.706
10 0 59677  63900.00000  0    -276181.004   -1354684.187   -6937217.924
10 0 59677  64080.00000  0   -1054246.122    -240805.183   -6991887.021
10 0 59677  64260.00000  0   -1764740.877     901286.064   -6792979.192
10 0 59677  64440.00000  0   -2381917.598    2028359.746   -6347733.204
10 0 59677  64620.00000  0   -2884481.622    3097075.643   -5672190.690
10 0 59677  64800.00000  0   -3256316.463    4065614.720   -4790671.931
10 0 59677  64980.00000  0   -3487006.570    4895304.115   -3734970.468
10 0 59677  65160.00000  0   -3572132.248    5552171.574   -2543271.771
10 0 59677  65340.00000  0   -3513322.316    6008363.911   -1258827.492
10 0 59677  65520.00000  0   -3318060.209    6243370.357      71585.605
10 0 59677  65700.00000  0   -2999243.706    6244976.720    1399372.573
10 0 59677  65880.00000  0   -2574514.792    6009896.797    2675929.135
10 0 59677  66060.00000  0   -2065380.567    5544029.041    3854466.878
10 0 59677  66240.00000  0   -1496183.015    4862329.744    4891761.480
10 0 59677  66420.00000  0    -892970.123    3988315.554    5749758.441
10 0 59677  66600.00000  0    -282321.567    2953217.752    6396971.883
10 0 59677  66780.00000  0     309810.044    1794830.334    6809626.934
10 0 59677  66960.00000  0     859194.893     556104.608    6972515.291
10 0 59677  67140.00000  0    1344316.070    -716457.354    6879543.611
10 0 59677  67320.00000  0    1747217.079   -1974554.034    6533967.194
10 0 59677  67500.00000  0    2054178.643   -3169929.708    5948300.250
10 0 59677  67680.00000  0    2256200.811   -4256251.452    5143897.045
10 0 59677  67860.00000  0    2349271.116   -5190946.047    4150206.114
10 0 59677  68040.00000  0    2334411.688   -5936926.333    3003716.168
10 0 59677  68220.00000  0    2217496.506   -6464132.037    1746613.412
10 0 59677  68400.00000  0    2008844.857   -6750799.518     425198.430
10 0 59677  68580.00000  0    1722613.829   -6784399.802    -911870.817
10 0 59677  68760.00000  0    1376015.612   -6562191.452   -2215444.227
10 0 59677  68940.00000  0     988399.145   -6091342.888   -3437755.203
10 0 59677  69120.00000  0     580258.817   -5388631.198   -4534210.940
10 0 59677  69300.00000  0     172224.547   -4479749.795   -5465020.898
10 0 59677  69480.00000  0    -215918.741   -3398274.591   -6196602.614
10 0 59677  69660.00000  0    -566133.538   -2184348.055   -6702724.417
10 0 59677  69840.00000  0    -862917.137    -883147.250   -6965361.239
10 0 59677  70020.00000  0   -1093946.621     456799.936   -6975258.114
10 0 59677  70200.00000  0   -1250562.120    1785394.235   -6732201.251
10 0 59677  70380.00000  0   -1328076.960    3052786.965   -6245003.059
10 0 59677  70560.00000  0   -1325908.021    4211201.839   -5531208.700
10 0 59677  70740.00000  0   -1247523.524    5216710.031   -4616521.098
10 0 59677  70920.00000  0   -1100209.861    6030901.562   -3533945.941
10 0 59677  71100.00000  0    -894663.384    6622387.637   -2322665.539
10 0 59677  71280.00000  0    -644420.255    6968068.780   -1026669.929
10 0 59677  71460.00000  0    -365147.872    7054105.879     306819.345
10 0 59677  71640.00000  0     -73827.697    6876537.979    1629078.478
10 0 59677  71820.00000  0     212127.985    6441498.666    2891698.149
10 0 59677  72000.00000  0     475776.675    5765009.614    4048394.873
10 0 59677  72180.00000  0     701520.220    4872376.457    5056739.562
99
